[
  { "code": "01", "name_en": "Banteay Meanchey", "latitude": "13.593741", "longitude": "102.964113" },
  { "code": "02", "name_en": "Battambang", "latitude": "13.093503", "longitude": "103.174847" },
  { "code": "03", "name_en": "Kampong Cham", "latitude": "12.058786", "longitude": "105.259381" },
  { "code": "04", "name_en": "Kampong Chhnang", "latitude": "12.252682", "longitude": "104.662794" },
  { "code": "05", "name_en": "Kampong Speu", "latitude": "11.568812", "longitude": "104.356552" },
  { "code": "06", "name_en": "Kampong Thom", "latitude": "12.732815", "longitude": "105.080571" },
  { "code": "07", "name_en": "Kampot", "latitude": "10.815549", "longitude": "104.361005" },
  { "code": "08", "name_en": "Kandal", "latitude": "11.389989", "longitude": "105.033890" },
  { "code": "09", "name_en": "Koh Kong", "latitude": "11.555066", "longitude": "103.409317" },
  { "code": "10", "name_en": "Kratie", "latitude": "12.500994", "longitude": "106.034898" },
  { "code": "11", "name_en": "Mondul Kiri", "latitude": "12.701801", "longitude": "107.028397" },
  { "code": "12", "name_en": "Phnom Penh", "latitude": "11.561841", "longitude": "104.873009" },
  { "code": "13", "name_en": "Preah Vihear", "latitude": "13.756433", "longitude": "104.950190" },
  { "code": "14", "name_en": "Prey Veng", "latitude": "11.332574", "longitude": "105.513992" },
  { "code": "15", "name_en": "Pursat", "latitude": "12.360687", "longitude": "103.765000" },
  { "code": "16", "name_en": "Ratanak Kiri", "latitude": "13.751761", "longitude": "107.007189" },
  { "code": "17", "name_en": "Siemreap", "latitude": "13.600126", "longitude": "103.973253" },
  { "code": "18", "name_en": "Preah Sihanouk", "latitude": "10.711682", "longitude": "103.819199" },
  { "code": "19", "name_en": "Stung Treng", "latitude": "13.519419", "longitude": "105.992663" },
  { "code": "20", "name_en": "Svay Rieng", "latitude": "11.096609", "longitude": "105.818799" },
  { "code": "21", "name_en": "Takeo", "latitude": "10.995313", "longitude": "104.781110" },
  { "code": "22", "name_en": "Oddar Meanchey", "latitude": "14.174234", "longitude": "103.728319" },
  { "code": "23", "name_en": "Kep", "latitude": "10.542105", "longitude": "104.320004" },
  { "code": "24", "name_en": "Pailin", "latitude": "12.850431", "longitude": "102.629377" },
  { "code": "25", "name_en": "Tboung Khmum", "latitude": "11.933720", "longitude": "105.854230" }
]
